STARLINK-34619          
1 64737U 25144P   25321.78006319  .00026707  00000+0  91024-3 0  9990
2 64737  53.1619 341.1570 0001875  88.2790 271.8426 15.30212952 22576
STARLINK-34597          
1 64738U 25144Q   25321.78944836  .00041444  00000+0  14035-2 0  9997
2 64738  53.1607 340.5083 0001378  85.1049 275.0109 15.30203475 22560
STARLINK-34471          
1 64739U 25144R   25321.76317916  .00023794  00000+0  81286-3 0  9990
2 64739  53.1600 341.0484 0002187  77.6461 282.4784 15.30201224 22514
STARLINK-34208          
1 64740U 25144S   25321.91532531  .00029845  00000+0  10153-2 0  9998
2 64740  53.1603 337.7423 0001408 102.3252 257.7907 15.30213533 22634
STARLINK-34205          
1 64741U 25144T   25322.01493906  .00024557  00000+0  83841-3 0  9993
2 64741  53.1586 339.7820 0001775  91.7764 268.3440 15.30202670 22612
STARLINK-34607          
1 64742U 25144U   25321.83482292  .00034710  00000+0  11782-2 0  9995
2 64742  53.1611 340.7893 0001679  81.9086 278.2105 15.30210824 22567
STARLINK-34236          
1 64743U 25144V   25322.01388189  .00032006  00000+0  10874-2 0  9994
2 64743  53.1597 339.7722 0001458  87.6197 272.4971 15.30222166 22616
STARLINK-34185          
1 64744U 25144W   25321.79472367  .00033035  00000+0  11225-2 0  9995
2 64744  53.1601 340.5368 0001702  87.5163 272.6033 15.30201189 22582
STARLINK-34581          
1 64745U 25144X   25321.77795130  .00027918  00000+0  95091-3 0  9997
2 64745  53.1611 341.1422 0001655  90.3697 269.7493 15.30208765 22576
STARLINK-34592          
1 64746U 25144Y   25322.18886222  .00054417  00000+0  13592-2 0  9996
2 64746  53.1591 331.6400 0002168 115.0549 245.0681 15.39652334 22744
STARLINK-34589          
1 64747U 25144Z   25321.74250060  .00054647  00000+0  13660-2 0  9994
2 64747  53.1598 329.5040 0001633  79.2212 280.8977 15.39628679 22731
STARLINK-34536          
1 64748U 25144AA  25321.75895676  .00042140  00000+0  14267-2 0  9993
2 64748  53.1594 341.0235 0001765  93.0087 267.1116 15.30202914 22579
STARLINK-34595          
1 64749U 25144AB  25321.76001043  .00018407  00000+0  63204-3 0  9997
2 64749  53.1591 341.0299 0001603  98.0551 262.0632 15.30201489 22572
STARLINK-34531          
1 64750U 25144AC  25321.48186561  .00021456  00000+0  73457-3 0  9996
2 64750  53.1600 342.1416 0001387  93.4858 266.6301 15.30193991 22533
STARLINK-33965          
1 64755U 25147A   25321.61894485  .00048791  00000+0  16514-2 0  9991
2 64755  53.1614  43.2865 0001555  94.9262 265.1917 15.30146245 21639
STARLINK-34371          
1 64756U 25147B   25321.64110936  .00043569  00000+0  14751-2 0  9996
2 64756  53.1602  43.4173 0001897  84.7947 275.3270 15.30186800 21543
