[{"OBJECT_NAME":"STARLINK-34619","OBJECT_ID":"2025-144P","EPOCH":"2025-11-17T18:43:17.459616","MEAN_MOTION":15.30212952,"ECCENTRICITY":0.0001875,"INCLINATION":53.1619,"RA_OF_ASC_NODE":341.157,"ARG_OF_PERICENTER":88.279,"MEAN_ANOMALY":271.8426,"EPHEMERIS_TYPE":0,"CLASSIFICATION_TYPE":"U","NORAD_CAT_ID":64737,"ELEMENT_SET_NO":999,"REV_AT_EPOCH":2257,"BSTAR":0.00091024,"MEAN_MOTION_DOT":0.00026707,"MEAN_MOTION_DDOT":0},{"OBJECT_NAME":"STARLINK-34597","OBJECT_ID":"2025-144Q","EPOCH":"2025-11-17T18:56:48.338304","MEAN_MOTION":15.30203475,"ECCENTRICITY":0.0001378,"INCLINATION":53.1607,"RA_OF_ASC_NODE":340.5083,"ARG_OF_PERICENTER":85.1049,"MEAN_ANOMALY":275.0109,"EPHEMERIS_TYPE":0,"CLASSIFICATION_TYPE":"U","NORAD_CAT_ID":64738,"ELEMENT_SET_NO":999,"REV_AT_EPOCH":2256,"BSTAR":0.0014035,"MEAN_MOTION_DOT":0.00041444,"MEAN_MOTION_DDOT":0},{"OBJECT_NAME":"STARLINK-34471","OBJECT_ID":"2025-144R","EPOCH":"2025-11-17T18:18:58.679424","MEAN_MOTION":15.30201224,"ECCENTRICITY":0.0002187,"INCLINATION":53.16,"RA_OF_ASC_NODE":341.0484,"ARG_OF_PERICENTER":77.6461,"MEAN_ANOMALY":282.4784,"EPHEMERIS_TYPE":0,"CLASSIFICATION_TYPE":"U","NORAD_CAT_ID":64739,"ELEMENT_SET_NO":999,"REV_AT_EPOCH":2251,"BSTAR":0.00081286,"MEAN_MOTION_DOT":0.00023794,"MEAN_MOTION_DDOT":0},{"OBJECT_NAME":"STARLINK-34208","OBJECT_ID":"2025-144S","EPOCH":"2025-11-17T21:58:04.106784","MEAN_MOTION":15.30213533,"ECCENTRICITY":0.0001408,"INCLINATION":53.1603,"RA_OF_ASC_NODE":337.7423,"ARG_OF_PERICENTER":102.3252,"MEAN_ANOMALY":257.7907,"EPHEMERIS_TYPE":0,"CLASSIFICATION_TYPE":"U","NORAD_CAT_ID":64740,"ELEMENT_SET_NO":999,"REV_AT_EPOCH":2263,"BSTAR":0.0010153,"MEAN_MOTION_DOT":0.00029845,"MEAN_MOTION_DDOT":0},{"OBJECT_NAME":"STARLINK-34205","OBJECT_ID":"2025-144T","EPOCH":"2025-11-18T00:21:30.734784","MEAN_MOTION":15.3020267,"ECCENTRICITY":0.0001775,"INCLINATION":53.1586,"RA_OF_ASC_NODE":339.782,"ARG_OF_PERICENTER":91.7764,"MEAN_ANOMALY":268.344,"EPHEMERIS_TYPE":0,"CLASSIFICATION_TYPE":"U","NORAD_CAT_ID":64741,"ELEMENT_SET_NO":999,"REV_AT_EPOCH":2261,"BSTAR":0.00083841,"MEAN_MOTION_DOT":0.00024557,"MEAN_MOTION_DDOT":0},{"OBJECT_NAME":"STARLINK-34607","OBJECT_ID":"2025-144U","EPOCH":"2025-11-17T20:02:08.700288","MEAN_MOTION":15.30210824,"ECCENTRICITY":0.0001679,"INCLINATION":53.1611,"RA_OF_ASC_NODE":340.7893,"ARG_OF_PERICENTER":81.9086,"MEAN_ANOMALY":278.2105,"EPHEMERIS_TYPE":0,"CLASSIFICATION_TYPE":"U","NORAD_CAT_ID":64742,"ELEMENT_SET_NO":999,"REV_AT_EPOCH":2256,"BSTAR":0.0011782,"MEAN_MOTION_DOT":0.0003471,"MEAN_MOTION_DDOT":0},{"OBJECT_NAME":"STARLINK-34236","OBJECT_ID":"2025-144V","EPOCH":"2025-11-18T00:19:59.395296","MEAN_MOTION":15.30222166,"ECCENTRICITY":0.0001458,"INCLINATION":53.1597,"RA_OF_ASC_NODE":339.7722,"ARG_OF_PERICENTER":87.6197,"MEAN_ANOMALY":272.4971,"EPHEMERIS_TYPE":0,"CLASSIFICATION_TYPE":"U","NORAD_CAT_ID":64743,"ELEMENT_SET_NO":999,"REV_AT_EPOCH":2261,"BSTAR":0.0010874,"MEAN_MOTION_DOT":0.00032006,"MEAN_MOTION_DDOT":0},{"OBJECT_NAME":"STARLINK-34185","OBJECT_ID":"2025-144W","EPOCH":"2025-11-17T19:04:24.125088","MEAN_MOTION":15.30201189,"ECCENTRICITY":0.0001702,"INCLINATION":53.1601,"RA_OF_ASC_NODE":340.5368,"ARG_OF_PERICENTER":87.5163,"MEAN_ANOMALY":272.6033,"EPHEMERIS_TYPE":0,"CLASSIFICATION_TYPE":"U","NORAD_CAT_ID":64744,"ELEMENT_SET_NO":999,"REV_AT_EPOCH":2258,"BSTAR":0.0011225,"MEAN_MOTION_DOT":0.00033035,"MEAN_MOTION_DDOT":0},{"OBJECT_NAME":"STARLINK-34581","OBJECT_ID":"2025-144X","EPOCH":"2025-11-17T18:40:14.992320","MEAN_MOTION":15.30208765,"ECCENTRICITY":0.0001655,"INCLINATION":53.1611,"RA_OF_ASC_NODE":341.1422,"ARG_OF_PERICENTER":90.3697,"MEAN_ANOMALY":269.7493,"EPHEMERIS_TYPE":0,"CLASSIFICATION_TYPE":"U","NORAD_CAT_ID":64745,"ELEMENT_SET_NO":999,"REV_AT_EPOCH":2257,"BSTAR":0.00095091,"MEAN_MOTION_DOT":0.00027918,"MEAN_MOTION_DDOT":0},{"OBJECT_NAME":"STARLINK-34592","OBJECT_ID":"2025-144Y","EPOCH":"2025-11-18T04:31:57.695808","MEAN_MOTION":15.39652334,"ECCENTRICITY":0.0002168,"INCLINATION":53.1591,"RA_OF_ASC_NODE":331.64,"ARG_OF_PERICENTER":115.0549,"MEAN_ANOMALY":245.0681,"EPHEMERIS_TYPE":0,"CLASSIFICATION_TYPE":"U","NORAD_CAT_ID":64746,"ELEMENT_SET_NO":999,"REV_AT_EPOCH":2274,"BSTAR":0.0013592,"MEAN_MOTION_DOT":0.00054417,"MEAN_MOTION_DDOT":0},{"OBJECT_NAME":"STARLINK-34589","OBJECT_ID":"2025-144Z","EPOCH":"2025-11-17T17:49:12.051840","MEAN_MOTION":15.39628679,"ECCENTRICITY":0.0001633,"INCLINATION":53.1598,"RA_OF_ASC_NODE":329.504,"ARG_OF_PERICENTER":79.2212,"MEAN_ANOMALY":280.8977,"EPHEMERIS_TYPE":0,"CLASSIFICATION_TYPE":"U","NORAD_CAT_ID":64747,"ELEMENT_SET_NO":999,"REV_AT_EPOCH":2273,"BSTAR":0.001366,"MEAN_MOTION_DOT":0.00054647,"MEAN_MOTION_DDOT":0},{"OBJECT_NAME":"STARLINK-34536","OBJECT_ID":"2025-144AA","EPOCH":"2025-11-17T18:12:53.864064","MEAN_MOTION":15.30202914,"ECCENTRICITY":0.0001765,"INCLINATION":53.1594,"RA_OF_ASC_NODE":341.0235,"ARG_OF_PERICENTER":93.0087,"MEAN_ANOMALY":267.1116,"EPHEMERIS_TYPE":0,"CLASSIFICATION_TYPE":"U","NORAD_CAT_ID":64748,"ELEMENT_SET_NO":999,"REV_AT_EPOCH":2257,"BSTAR":0.0014267,"MEAN_MOTION_DOT":0.0004214,"MEAN_MOTION_DDOT":0},{"OBJECT_NAME":"STARLINK-34595","OBJECT_ID":"2025-144AB","EPOCH":"2025-11-17T18:14:24.901152","MEAN_MOTION":15.30201489,"ECCENTRICITY":0.0001603,"INCLINATION":53.1591,"RA_OF_ASC_NODE":341.0299,"ARG_OF_PERICENTER":98.0551,"MEAN_ANOMALY":262.0632,"EPHEMERIS_TYPE":0,"CLASSIFICATION_TYPE":"U","NORAD_CAT_ID":64749,"ELEMENT_SET_NO":999,"REV_AT_EPOCH":2257,"BSTAR":0.00063204,"MEAN_MOTION_DOT":0.00018407,"MEAN_MOTION_DDOT":0},{"OBJECT_NAME":"STARLINK-34531","OBJECT_ID":"2025-144AC","EPOCH":"2025-11-17T11:33:53.188704","MEAN_MOTION":15.30193991,"ECCENTRICITY":0.0001387,"INCLINATION":53.16,"RA_OF_ASC_NODE":342.1416,"ARG_OF_PERICENTER":93.4858,"MEAN_ANOMALY":266.6301,"EPHEMERIS_TYPE":0,"CLASSIFICATION_TYPE":"U","NORAD_CAT_ID":64750,"ELEMENT_SET_NO":999,"REV_AT_EPOCH":2253,"BSTAR":0.00073457225,"MEAN_MOTION_DOT":0.00021456,"MEAN_MOTION_DDOT":0},{"OBJECT_NAME":"STARLINK-33965","OBJECT_ID":"2025-147A","EPOCH":"2025-11-17T14:51:16.835040","MEAN_MOTION":15.30146245,"ECCENTRICITY":0.00015554,"INCLINATION":53.1614,"RA_OF_ASC_NODE":43.2865,"ARG_OF_PERICENTER":94.9262,"MEAN_ANOMALY":265.1917,"EPHEMERIS_TYPE":0,"CLASSIFICATION_TYPE":"U","NORAD_CAT_ID":64755,"ELEMENT_SET_NO":999,"REV_AT_EPOCH":2163,"BSTAR":0.0016514205,"MEAN_MOTION_DOT":0.00048791,"MEAN_MOTION_DDOT":0},{"OBJECT_NAME":"STARLINK-34371","OBJECT_ID":"2025-147B","EPOCH":"2025-11-17T15:23:11.848704","MEAN_MOTION":15.301868,"ECCENTRICITY":0.0001897,"INCLINATION":53.1602,"RA_OF_ASC_NODE":43.4173,"ARG_OF_PERICENTER":84.7947,"MEAN_ANOMALY":275.327,"EPHEMERIS_TYPE":0,"CLASSIFICATION_TYPE":"U","NORAD_CAT_ID":64756,"ELEMENT_SET_NO":999,"REV_AT_EPOCH":2154,"BSTAR":0.0014751,"MEAN_MOTION_DOT":0.00043569,"MEAN_MOTION_DDOT":0}]
